HUBBLE 7                
1 64592U 25135BS  26159.11238605  .00002069  00000+0  20055-3 0  9992
2 64592  97.7739 273.9012 0003344  41.3092 318.8381 14.93780273 52550
STARLINK-34280          
1 64594U 25137A   26158.61891156  .00033651  00000+0  11438-2 0  9991
2 64594  53.1590 277.5183 0001813 104.9650 255.1552 15.30182570 54505
STARLINK-34517          
1 64595U 25137B   26159.16672454  .01325579  00000+0  36965-1 0  9996
2 64595  53.1578 275.1082 0000373  65.4111   2.8999 15.33345936  5763
STARLINK-34510          
1 64596U 25137C   26158.63262765  .00023548  00000+0  80542-3 0  9990
2 64596  53.1588 277.6005 0001372  82.0906 278.0251 15.30169651 54503
STARLINK-34486          
1 64597U 25137D   26158.59158455  .00020810  00000+0  71305-3 0  9992
2 64597  53.1620 278.0497 0002837  80.3129 279.8192 15.30185531 54492
STARLINK-34463          
1 64598U 25137E   26159.16672454  .00071102  00000+0  20978-2 0  9996
2 64598  53.1583 275.1314 0001114  99.7478 315.9796 15.34367848  5906
STARLINK-34294          
1 64599U 25137F   26158.63368600  .00025757  00000+0  87916-3 0  9994
2 64599  53.1597 277.6012 0003317  72.1971 287.9392 15.30181996 54508
STARLINK-34504          
1 64600U 25137G   26158.65479927  .00024723  00000+0  84452-3 0  9998
2 64600  53.1620 277.7358 0001393 102.0381 258.0775 15.30182246 54505
STARLINK-34508          
1 64601U 25137H   26158.60943035  .00023806  00000+0  81440-3 0  9995
2 64601  53.1596 277.4557 0001801  89.4810 270.6397 15.30156578 54504
STARLINK-34435          
1 64602U 25137J   26158.89178200  .00029290  00000+0  99807-3 0  9990
2 64602  53.1586 276.3709 0001416  73.7081 286.4075 15.30169612 54544
STARLINK-34475          
1 64603U 25137K   26159.01607881  .00034364  00000+0  11676-2 0  9993
2 64603  53.1585 275.7243 0001346  83.8895 276.2259 15.30184374 54562
STARLINK-34488          
1 64604U 25137L   26158.93282779  .00027912  00000+0  95167-3 0  9998
2 64604  53.1606 275.9185 0001759  82.4220 277.6980 15.30176043 54558
STARLINK-34516          
1 64605U 25137M   26158.87769787  .00029851  00000+0  97036-3 0  9992
2 64605  53.1594 275.5802 0001605  93.7061 266.4124 15.31682589 54650
STARLINK-34073          
1 64606U 25137N   26158.92860352  .00029655  00000+0  10099-2 0  9994
2 64606  53.1598 275.8887 0001682  74.0247 286.0939 15.30183292 54438
STARLINK-34532          
1 64607U 25137P   26159.16672454  .00080815  00000+0  24439-2 0  9994
2 64607  53.1598 285.1030 0001330  77.1227 322.4141 15.33526349  5865
STARLINK-34519          
1 64608U 25137Q   26158.94232595  .00025411  00000+0  86770-3 0  9996
2 64608  53.1588 275.9762 0001488  77.1142 283.0025 15.30179067 54555
STARLINK-34513          
1 64609U 25137R   26158.87382078  .00024369  00000+0  83188-3 0  9992
2 64609  53.1593 276.2576 0001200  82.5607 277.5530 15.30211801 54638
STARLINK-34569          
1 64610U 25137S   26158.83805529  .00033626  00000+0  11418-2 0  9993
2 64610  53.1586 276.7458 0001278 100.5960 259.5185 15.30214067 54536
STARLINK-34494          
1 64611U 25137T   26158.62207402  .00026231  00000+0  89522-3 0  9993
2 64611  53.1586 277.5293 0001187 104.2438 255.8695 15.30178991 54500
STARLINK-34521          
1 64612U 25137U   26158.93811409  .00050246  00000+0  16977-2 0  9992
2 64612  53.1595 275.9453 0001350  83.0661 277.0493 15.30189457 54551
STARLINK-34500          
1 64613U 25137V   26158.63473764  .00030518  00000+0  10393-2 0  9994
2 64613  53.1584 277.6075 0001499  81.8958 278.2212 15.30167311 54601
STARLINK-34440          
1 64614U 25137W   26158.62735137  .00028808  00000+0  98154-3 0  9990
2 64614  53.1596 277.5612 0001701  94.8098 265.3097 15.30181822 54506
STARLINK-34469          
1 64615U 25137X   26158.59780853  .00019241  00000+0  66087-3 0  9993
2 64615  53.1608 277.3781 0001981  94.5183 265.6044 15.30160926 54505
STARLINK-34413          
1 64616U 25137Y   26159.00004630 -.00002048  00000+0 -50958-4 0  9993
2 64616  53.1585 275.9578 0000613  76.4045 113.4429 15.33549311  5881
STARLINK-34417          
1 64617U 25137Z   26158.91026609  .00037149  00000+0  11059-2 0  9998
2 64617  53.1584 262.7712 0000804  97.6596 262.4497 15.34379321 54835
STARLINK-34415          
1 64618U 25137AA  26158.61785416  .00017830  00000+0  61269-3 0  9998
2 64618  53.1587 277.5040 0001361 101.7971 258.3183 15.30198455 54503
STARLINK-34416          
1 64619U 25137AB  26158.94126868  .00020975  00000+0  71898-3 0  9998
2 64619  53.1588 275.9668 0001443  91.7770 268.3396 15.30169599 54558
STARLINK-34414          
1 64620U 25137AC  26158.63895830  .00030537  00000+0  10399-2 0  9991
2 64620  53.1583 277.6295 0001293  98.2659 261.8489 15.30169967 54506
HAWK-12C                
1 64621U 25138A   26158.94663742  .00004837  00000+0  23967-3 0  9992
2 64621  97.4344 161.5497 0014370 168.1291 192.0285 15.18133557 52461
HAWK-12B                
1 64622U 25138B   26158.94681657  .00004842  00000+0  24001-3 0  9994
2 64622  97.4468 162.1833 0013516 163.0478 197.1211 15.18133395 52467
