OBJECT_NAME,OBJECT_ID,EPOCH,MEAN_MOTION,ECCENTRICITY,INCLINATION,RA_OF_ASC_NODE,ARG_OF_PERICENTER,MEAN_ANOMALY,EPHEMERIS_TYPE,CLASSIFICATION_TYPE,NORAD_CAT_ID,ELEMENT_SET_NO,REV_AT_EPOCH,BSTAR,MEAN_MOTION_DOT,MEAN_MOTION_DDOT
HUBBLE 7,2025-135BS,2026-06-08T02:41:50.154720,14.93780273,.0003344,97.7739,273.9012,41.3092,318.8381,0,U,64592,999,5255,.20055E-3,.2069E-4,0
STARLINK-34280,2025-137A,2026-06-07T14:51:13.958784,15.30182570,.0001813,53.1590,277.5183,104.9650,255.1552,0,U,64594,999,5450,.11438E-2,.33651E-3,0
STARLINK-34517,2025-137B,2026-06-08T04:00:05.000256,15.33345936,.0000373,53.1578,275.1082,65.4111,2.8999,0,U,64595,999,576,.36965E-1,.1325579E-1,0
STARLINK-34510,2025-137C,2026-06-07T15:10:59.028960,15.30169651,.0001372,53.1588,277.6005,82.0906,278.0251,0,U,64596,999,5450,.80542E-3,.23548E-3,0
STARLINK-34486,2025-137D,2026-06-07T14:11:52.905120,15.30185531,.0002837,53.1620,278.0497,80.3129,279.8192,0,U,64597,999,5449,.71305E-3,.2081E-3,0
STARLINK-34463,2025-137E,2026-06-08T04:00:05.000256,15.34367848,.0001114,53.1583,275.1314,99.7478,315.9796,0,U,64598,999,590,.20978E-2,.71102E-3,0
STARLINK-34294,2025-137F,2026-06-07T15:12:30.470400,15.30181996,.0003317,53.1597,277.6012,72.1971,287.9392,0,U,64599,999,5450,.87916E-3,.25757E-3,0
STARLINK-34504,2025-137G,2026-06-07T15:42:54.656928,15.30182246,.0001393,53.1620,277.7358,102.0381,258.0775,0,U,64600,999,5450,.84452E-3,.24723E-3,0
STARLINK-34508,2025-137H,2026-06-07T14:37:34.782240,15.30156578,.0001801,53.1596,277.4557,89.4810,270.6397,0,U,64601,999,5450,.8144E-3,.23806E-3,0
STARLINK-34435,2025-137J,2026-06-07T21:24:09.964800,15.30169612,.0001416,53.1586,276.3709,73.7081,286.4075,0,U,64602,999,5454,.99807E-3,.2929E-3,0
STARLINK-34475,2025-137K,2026-06-08T00:23:09.209184,15.30184374,.0001346,53.1585,275.7243,83.8895,276.2259,0,U,64603,999,5456,.11676E-2,.34364E-3,0
STARLINK-34488,2025-137L,2026-06-07T22:23:16.321056,15.30176043,.0001759,53.1606,275.9185,82.4220,277.6980,0,U,64604,999,5455,.95167E-3,.27912E-3,0
STARLINK-34516,2025-137M,2026-06-07T21:03:53.095968,15.31682589,.0001605,53.1594,275.5802,93.7061,266.4124,0,U,64605,999,5465,.97036E-3,.29851E-3,0
STARLINK-34073,2025-137N,2026-06-07T22:17:11.344128,15.30183292,.0001682,53.1598,275.8887,74.0247,286.0939,0,U,64606,999,5443,.10099E-2,.29655E-3,0
STARLINK-34532,2025-137P,2026-06-08T04:00:05.000256,15.33526349,.000133,53.1598,285.1030,77.1227,322.4141,0,U,64607,999,586,.24439E-2,.80815E-3,0
STARLINK-34519,2025-137Q,2026-06-07T22:36:56.962080,15.30179067,.0001488,53.1588,275.9762,77.1142,283.0025,0,U,64608,999,5455,.8677E-3,.25411E-3,0
STARLINK-34513,2025-137R,2026-06-07T20:58:18.115392,15.30211801,.00012,53.1593,276.2576,82.5607,277.5530,0,U,64609,999,5463,.83188E-3,.24369E-3,0
STARLINK-34569,2025-137S,2026-06-07T20:06:47.977056,15.30214067,.0001278,53.1586,276.7458,100.5960,259.5185,0,U,64610,999,5453,.11418E-2,.33626E-3,0
STARLINK-34494,2025-137T,2026-06-07T14:55:47.195328,15.30178991,.0001187,53.1586,277.5293,104.2438,255.8695,0,U,64611,999,5450,.89522E-3,.26231E-3,0
STARLINK-34521,2025-137U,2026-06-07T22:30:53.057376,15.30189457,.000135,53.1595,275.9453,83.0661,277.0493,0,U,64612,999,5455,.16977E-2,.50246E-3,0
STARLINK-34500,2025-137V,2026-06-07T15:14:01.332096,15.30167311,.0001499,53.1584,277.6075,81.8958,278.2212,0,U,64613,999,5460,.10393E-2,.30518E-3,0
STARLINK-34440,2025-137W,2026-06-07T15:03:23.158368,15.30181822,.0001701,53.1596,277.5612,94.8098,265.3097,0,U,64614,999,5450,.98154E-3,.28808E-3,0
STARLINK-34469,2025-137X,2026-06-07T14:20:50.656992,15.30160926,.0001981,53.1608,277.3781,94.5183,265.6044,0,U,64615,999,5450,.66087E-3,.19241E-3,0
STARLINK-34413,2025-137Y,2026-06-08T00:00:04.000320,15.33549311,.0000613,53.1585,275.9578,76.4045,113.4429,0,U,64616,999,588,-.50958E-4,-.2048E-4,0
STARLINK-34417,2025-137Z,2026-06-07T21:50:46.990176,15.34379321,.0000804,53.1584,262.7712,97.6596,262.4497,0,U,64617,999,5483,.11059E-2,.37149E-3,0
STARLINK-34415,2025-137AA,2026-06-07T14:49:42.599424,15.30198455,.0001361,53.1587,277.5040,101.7971,258.3183,0,U,64618,999,5450,.61269E-3,.1783E-3,0
STARLINK-34416,2025-137AB,2026-06-07T22:35:25.613952,15.30169599,.0001443,53.1588,275.9668,91.7770,268.3396,0,U,64619,999,5455,.71898E-3,.20975E-3,0
STARLINK-34414,2025-137AC,2026-06-07T15:20:05.997120,15.30169967,.0001293,53.1583,277.6295,98.2659,261.8489,0,U,64620,999,5450,.10399E-2,.30537E-3,0
HAWK-12C,2025-138A,2026-06-07T22:43:09.473088,15.18133557,.001437,97.4344,161.5497,168.1291,192.0285,0,U,64621,999,5246,.23967E-3,.4837E-4,0
HAWK-12B,2025-138B,2026-06-07T22:43:24.951648,15.18133395,.0013516,97.4468,162.1833,163.0478,197.1211,0,U,64622,999,5246,.24001E-3,.4842E-4,0
